{
  "type": "FeatureCollection",
  "features": [
    {
      "type": "Feature",
      "properties": {
        "norad_id": 67131,
        "name": "ZIYUAN 3-04 (ZY 3-04)",
        "group": "last-30-days",
        "lat": 40.63627724635541,
        "lon": 67.86692098681529,
        "alt_km": 499.7758624445578,
        "timestamp": "2025-12-26T07:29:17.197056+00:00",
        "meta_object_name": "ZIYUAN 3-04 (ZY 3-04)",
        "meta_object_id": "2025-300A",
        "meta_epoch": "2025-12-21T18:22:34.187808",
        "meta_mean_motion": 15.21179479,
        "meta_eccentricity": 0.00027623,
        "meta_inclination": 97.4922,
        "meta_ra_of_asc_node": 69.8294,
        "meta_arg_of_pericenter": 167.6924,
        "meta_mean_anomaly": 192.438,
        "meta_ephemeris_type": 0,
        "meta_classification_type": "U",
        "meta_norad_cat_id": 67131,
        "meta_element_set_no": 999,
        "meta_rev_at_epoch": 86,
        "meta_bstar": 6.5769783e-05,
        "meta_mean_motion_dot": 1.396e-05,
        "meta_mean_motion_ddot": 0,
        "tle_line1": "1 67131U 25300A   25355.76567347  .00001396  00000+0  65770-4 0  9990",
        "tle_line2": "2 67131  97.4922  69.8294 0002762 167.6924 192.4380 15.21179479   860"
      },
      "geometry": {
        "type": "Point",
        "coordinates": [
          67.86692098681529,
          40.63627724635541
        ]
      }
    },
    {
      "type": "Feature",
      "properties": {
        "norad_id": 67132,
        "name": "CZ-4B R/B",
        "group": "last-30-days",
        "lat": 47.13245172081913,
        "lon": -96.6317154303927,
        "alt_km": 472.4209445178576,
        "timestamp": "2025-12-26T07:29:17.197069+00:00",
        "meta_object_name": "CZ-4B R/B",
        "meta_object_id": "2025-300B",
        "meta_epoch": "2025-12-18T16:13:04.609056",
        "meta_mean_motion": 15.63831828,
        "meta_eccentricity": 0.01741973,
        "meta_inclination": 97.5563,
        "meta_ra_of_asc_node": 66.966,
        "meta_arg_of_pericenter": 9.3582,
        "meta_mean_anomaly": 351.0851,
        "meta_ephemeris_type": 0,
        "meta_classification_type": "U",
        "meta_norad_cat_id": 67132,
        "meta_element_set_no": 999,
        "meta_rev_at_epoch": 40,
        "meta_bstar": 0.00019566238,
        "meta_mean_motion_dot": 0.00040543,
        "meta_mean_motion_ddot": 2.652968e-06,
        "tle_line1": "1 67132U 25300B   25352.67574779  .00040543  26530-5  19566-3 0  9995",
        "tle_line2": "2 67132  97.5563  66.9660 0174197   9.3582 351.0851 15.63831828   407"
      },
      "geometry": {
        "type": "Point",
        "coordinates": [
          -96.6317154303927,
          47.13245172081913
        ]
      }
    },
    {
      "type": "Feature",
      "properties": {
        "norad_id": 67133,
        "name": "KUIPER-00144",
        "group": "last-30-days",
        "lat": 13.044344303216112,
        "lon": 70.16977074511547,
        "alt_km": 459.71251112595564,
        "timestamp": "2025-12-26T07:29:17.197079+00:00",
        "meta_object_name": "KUIPER-00144",
        "meta_object_id": "2025-301A",
        "meta_epoch": "2025-12-25T22:00:01.999584",
        "meta_mean_motion": 15.35427011,
        "meta_eccentricity": 0.00062387,
        "meta_inclination": 51.8705,
        "meta_ra_of_asc_node": 61.5912,
        "meta_arg_of_pericenter": 121.3318,
        "meta_mean_anomaly": 228.9898,
        "meta_ephemeris_type": 0,
        "meta_classification_type": "U",
        "meta_norad_cat_id": 67133,
        "meta_element_set_no": 999,
        "meta_rev_at_epoch": 179,
        "meta_bstar": 0.00025090013,
        "meta_mean_motion_dot": 8.397e-05,
        "meta_mean_motion_ddot": 0,
        "tle_line1": "1 67133U 25301A   25359.91668981  .00008397  00000+0  25090-3 0  9998",
        "tle_line2": "2 67133  51.8705  61.5912 0006238 121.3318 228.9898 15.35427011  1792"
      },
      "geometry": {
        "type": "Point",
        "coordinates": [
          70.16977074511547,
          13.044344303216112
        ]
      }
    },
    {
      "type": "Feature",
      "properties": {
        "norad_id": 67134,
        "name": "KUIPER-00164",
        "group": "last-30-days",
        "lat": 32.48147305076119,
        "lon": 89.62978227415151,
        "alt_km": 452.36320506040283,
        "timestamp": "2025-12-26T07:29:17.197089+00:00",
        "meta_object_name": "KUIPER-00164",
        "meta_object_id": "2025-301B",
        "meta_epoch": "2025-12-25T22:00:01.999584",
        "meta_mean_motion": 15.36127089,
        "meta_eccentricity": 0.00031804,
        "meta_inclination": 51.8727,
        "meta_ra_of_asc_node": 61.5376,
        "meta_arg_of_pericenter": 104.2516,
        "meta_mean_anomaly": 271.3994,
        "meta_ephemeris_type": 0,
        "meta_classification_type": "U",
        "meta_norad_cat_id": 67134,
        "meta_element_set_no": 999,
        "meta_rev_at_epoch": 257,
        "meta_bstar": 0.00032534037,
        "meta_mean_motion_dot": 0.0001126,
        "meta_mean_motion_ddot": 0,
        "tle_line1": "1 67134U 25301B   25359.91668981  .00011260  00000+0  32534-3 0  9993",
        "tle_line2": "2 67134  51.8727  61.5376 0003180 104.2516 271.3994 15.36127089  2573"
      },
      "geometry": {
        "type": "Point",
        "coordinates": [
          89.62978227415151,
          32.48147305076119
        ]
      }
    },
    {
      "type": "Feature",
      "properties": {
        "norad_id": 67135,
        "name": "KUIPER-00175",
        "group": "last-30-days",
        "lat": 43.36441798921021,
        "lon": 107.46837048712298,
        "alt_km": 448.79432931416795,
        "timestamp": "2025-12-26T07:29:17.197101+00:00",
        "meta_object_name": "KUIPER-00175",
        "meta_object_id": "2025-301C",
        "meta_epoch": "2025-12-25T22:00:01.999584",
        "meta_mean_motion": 15.36582767,
        "meta_eccentricity": 0.00022103,
        "meta_inclination": 51.8745,
        "meta_ra_of_asc_node": 61.4961,
        "meta_arg_of_pericenter": 59.4048,
        "meta_mean_anomaly": 333.2915,
        "meta_ephemeris_type": 0,
        "meta_classification_type": "U",
        "meta_norad_cat_id": 67135,
        "meta_element_set_no": 999,
        "meta_rev_at_epoch": 246,
        "meta_bstar": 0.00035902002,
        "meta_mean_motion_dot": 0.00012655,
        "meta_mean_motion_ddot": 0,
        "tle_line1": "1 67135U 25301C   25359.91668981  .00012655  00000+0  35902-3 0  9995",
        "tle_line2": "2 67135  51.8745  61.4961 0002210  59.4048 333.2915 15.36582767  2464"
      },
      "geometry": {
        "type": "Point",
        "coordinates": [
          107.46837048712298,
          43.36441798921021
        ]
      }
    },
    {
      "type": "Feature",
      "properties": {
        "norad_id": 67136,
        "name": "KUIPER-00179",
        "group": "last-30-days",
        "lat": 37.05261319140625,
        "lon": 95.97845195193582,
        "alt_km": 450.59574482004336,
        "timestamp": "2025-12-26T07:29:17.197111+00:00",
        "meta_object_name": "KUIPER-00179",
        "meta_object_id": "2025-301D",
        "meta_epoch": "2025-12-25T22:00:01.999584",
        "meta_mean_motion": 15.36245645,
        "meta_eccentricity": 0.00030027,
        "meta_inclination": 51.8741,
        "meta_ra_of_asc_node": 61.52,
        "meta_arg_of_pericenter": 83.4713,
        "meta_mean_anomaly": 298.9314,
        "meta_ephemeris_type": 0,
        "meta_classification_type": "U",
        "meta_norad_cat_id": 67136,
        "meta_element_set_no": 999,
        "meta_rev_at_epoch": 257,
        "meta_bstar": 0.00037698224,
        "meta_mean_motion_dot": 0.00013163,
        "meta_mean_motion_ddot": 0,
        "tle_line1": "1 67136U 25301D   25359.91668981  .00013163  00000+0  37698-3 0  9995",
        "tle_line2": "2 67136  51.8741  61.5200 0003002  83.4713 298.9314 15.36245645  2577"
      },
      "geometry": {
        "type": "Point",
        "coordinates": [
          95.97845195193582,
          37.05261319140625
        ]
      }
    },
    {
      "type": "Feature",
      "properties": {
        "norad_id": 67137,
        "name": "KUIPER-00181",
        "group": "last-30-days",
        "lat": -15.902560340789563,
        "lon": 46.826075067971495,
        "alt_km": 471.79681948395137,
        "timestamp": "2025-12-26T07:29:17.197124+00:00",
        "meta_object_name": "KUIPER-00181",
        "meta_object_id": "2025-301E",
        "meta_epoch": "2025-12-25T22:00:01.999584",
        "meta_mean_motion": 15.34417071,
        "meta_eccentricity": 0.00100049,
        "meta_inclination": 51.864,
        "meta_ra_of_asc_node": 61.665,
        "meta_arg_of_pericenter": 142.6869,
        "meta_mean_anomaly": 171.9681,
        "meta_ephemeris_type": 0,
        "meta_classification_type": "U",
        "meta_norad_cat_id": 67137,
        "meta_element_set_no": 999,
        "meta_rev_at_epoch": 254,
        "meta_bstar": 0.0001802528,
        "meta_mean_motion_dot": 5.73e-05,
        "meta_mean_motion_ddot": 0,
        "tle_line1": "1 67137U 25301E   25359.91668981  .00005730  00000+0  18025-3 0  9990",
        "tle_line2": "2 67137  51.8640  61.6650 0010004 142.6869 171.9681 15.34417071  2542"
      },
      "geometry": {
        "type": "Point",
        "coordinates": [
          46.826075067971495,
          -15.902560340789563
        ]
      }
    }
  ]
}